270P/Gehrels,e,2.9247,223.0244,209.9666,6.647317,0.0575088,0.47010985,265.6131,02/18.0/2026,2000,g  8.0,4.0
# From MPEC 2025-W75
271P/vanHouten-Lemmon,e,6.8632,9.2171,36.6931,7.033083,0.0528428,0.39553432,242.4186,02/18.0/2026,2000,g 11.0,4.0
# From MPEC 2025-W75
272P/NEAT,e,18.0834,109.4391,27.9051,4.462099,0.1045672,0.45567157,137.0953,02/18.0/2026,2000,g 16.0,2.0
# From MPEC 2025-WD0
273P/Pons-Gambart,e,136.1925,320.3441,20.0930,31.88900,0.0054732,0.97476100,0.0000,12/22.3522/2012,2000,g 11.5,4.0
# From MPEC 2025-W75
274P/Tombaugh-Tenagra,e,15.8186,81.3147,38.5213,4.378724,0.1075679,0.44033219,151.7132,02/18.0/2026,2000,g 13.0,4.0
# From MPEC 2025-W75
275P/Hermann,e,21.2490,348.7182,173.8354,5.801418,0.0705347,0.71399536,342.2314,02/18.0/2026,2000,g 15.0,4.0
# From MPEC 2026-A24
276P/Vorobjov,e,14.7265,210.8728,199.8909,5.388627,0.0787929,0.27658246,34.0779,02/18.0/2026,2000,g 11.5,4.0
# From MPEC 2025-W75
277P/LINEAR,e,16.7929,276.2598,152.4526,3.853517,0.1302921,0.50627181,244.1484,02/18.0/2026,2000,g 14.0,4.0
# From MPEC 2025-W75
278P/McNaught,e,6.6446,10.7014,243.2868,3.614653,0.1434182,0.45477885,277.6246,02/18.0/2026,2000,g 14.0,4.0
# From MPEC 2025-W75
279P/LaSagra,e,5.0551,346.0920,5.5658,3.566423,0.1463372,0.39973808,151.6678,02/18.0/2026,2000,g 14.0,4.0
# From MPEC 2025-W75
280P/Larsen,e,11.7754,131.3773,104.5835,4.522727,0.1024716,0.41703132,95.1553,02/18.0/2026,2000,g 12.5,4.0
# From MPEC 2025-W75
281P/MOSS,e,4.7174,87.1681,27.1514,4.888893,0.0911776,0.17390536,101.0946,02/18.0/2026,2000,g 11.0,4.0
# From MPEC 2025-W75
283P/Spacewatch,e,14.4714,161.1277,22.1525,4.130443,0.1174111,0.48544118,190.5229,02/18.0/2026,2000,g 16.0,2.0
# From MPEC 2025-W75
284P/McNaught,e,11.8515,144.2591,202.4357,3.679725,0.1396308,0.37411334,226.4284,02/18.0/2026,2000,g 13.0,4.0
# From MPEC 2025-W75
285P/LINEAR,e,25.0296,185.5177,178.3693,4.504814,0.1030834,0.61787383,116.8538,02/18.0/2026,2000,g 15.0,4.0
# From MPEC 2025-W75
286P/Christensen,e,17.2135,283.5502,23.3464,4.051575,0.1208560,0.43834130,166.1482,02/18.0/2026,2000,g 14.0,4.0
# From MPEC 2025-W75
287P/Christensen,e,16.4794,138.2131,192.2244,4.214277,0.1139251,0.27091354,108.0958,02/18.0/2026,2000,g 13.5,4.0
# From MPC133426
288P/,e,3.2381,83.1076,280.2405,3.051192,0.1849268,0.19940417,268.2751,02/18.0/2026,2000,g 16.0,2.0
# From MPEC 2025-W75
289P/Blanpain,e,5.9000,68.8921,9.8812,3.043682,0.1856116,0.68639239,57.4829,02/18.0/2026,2000,g 19.0,4.0
# From MPEC 2025-W75
290P/Jager,e,20.0110,302.6425,181.9111,6.212698,0.0636479,0.62806364,280.4060,02/18.0/2026,2000,g 10.5,4.0
# From MPEC 2025-W75
291P/NEAT,e,6.3091,237.6676,173.5873,4.535934,0.1020244,0.43359541,104.1875,02/18.0/2026,2000,g 13.0,4.0
# From MPEC 2025-W75
292P/Li,e,24.3212,90.8953,319.6722,6.094746,0.0655044,0.58969626,287.2842,02/18.0/2026,2000,g 12.5,4.0
# From MPEC 2025-W75
293P/Spacewatch,e,9.0617,78.3874,40.9967,3.636658,0.1421184,0.41967736,267.7554,02/18.0/2026,2000,g 14.5,4.0
# From MPEC 2025-W75
294P/LINEAR,e,17.7433,309.5987,237.5922,3.190756,0.1729274,0.60101785,32.9942,02/18.0/2026,2000,g 15.5,4.0
# From MPEC 2025-YF1
295P/LINEAR,e,21.0879,7.3781,73.0678,5.296623,0.0808547,0.61756060,347.4862,02/18.0/2026,2000,g 12.0,4.0
# From MPEC 2025-W75
296P/Garradd,e,25.3449,263.4741,350.5733,3.463165,0.1529306,0.48702699,299.5277,02/18.0/2026,2000,g 14.0,4.0
# From MPEC 2025-W75
297P/Beshore,e,11.2925,90.0035,145.0898,3.569950,0.1461204,0.27769686,269.8422,02/18.0/2026,2000,g 15.0,4.0
# From MPEC 2025-W75
298P/Christensen,e,7.8732,52.7817,100.6395,3.587785,0.1450322,0.38714498,288.6976,02/18.0/2026,2000,g 15.0,4.0
# From MPEC 2025-W75
299P/Catalina-PANSTARRS,e,10.4684,271.5757,323.5644,4.387704,0.1072379,0.28100970,70.6902,02/18.0/2026,2000,g 11.5,4.0
# From MPEC 2025-W75
300P/Catalina,e,5.6760,95.6140,222.8808,2.695639,0.2226955,0.69260322,232.4710,02/18.0/2026,2000,g 16.0,4.0
# From MPEC 2025-W75
301P/LINEAR-NEAT,e,10.3255,351.1200,193.3533,5.754490,0.0713993,0.58652494,301.5463,02/18.0/2026,2000,g 13.0,4.0
# From MPEC 2026-A90
302P/Lemmon-PANSTARRS,e,6.0356,121.7168,208.5964,4.265507,0.1118789,0.22902875,38.6858,02/18.0/2026,2000,g 12.5,4.0
# From MPEC 2025-W75
303P/NEAT,e,7.0167,347.9058,357.0569,5.037773,0.0871658,0.51003896,359.8322,02/18.0/2026,2000,g 13.5,4.0
# From MPEC 2025-W75
304P/Ory,e,2.6065,58.9008,335.3258,3.148824,0.1763931,0.60075179,355.0247,02/18.0/2026,2000,g 16.5,4.0
# From MPEC 2025-W75
305P/Skiff,e,11.6700,240.0708,147.3703,4.631135,0.0988947,0.69401352,45.2855,02/18.0/2026,2000,g 18.0,4.0
# From MPEC 2025-X35
306P/LINEAR,e,8.3018,341.3323,0.9369,3.124826,0.1784290,0.59257013,35.7456,02/18.0/2026,2000,g 19.0,4.0
# From MPEC 2025-W75
307P/LINEAR,e,4.4307,158.0490,222.3064,5.791328,0.0707191,0.67486384,287.7099,02/18.0/2026,2000,g 15.0,4.0
# From MPEC 2025-W75
308P/Lagerkvist-Carsenty,e,4.8530,63.0379,333.8225,6.602991,0.0580889,0.36369757,228.4210,02/18.0/2026,2000,g 13.0,2.0
# From MPEC 2025-W75
309P/LINEAR,e,17.0156,10.1379,49.9397,4.375305,0.1076940,0.61805460,74.4312,02/18.0/2026,2000,g 15.0,4.0
# From MPEC 2025-W75
310P/Hill,e,13.1194,8.8844,31.5103,4.180604,0.1153043,0.42186487,97.9036,02/18.0/2026,2000,g 13.5,4.0
# From MPEC 2025-W75
311P/PANSTARRS,e,4.9713,279.1681,144.3265,2.188872,0.3043501,0.11537425,236.7948,02/18.0/2026,2000,g 17.0,4.0
# From MPEC 2025-W75
312P/NEAT,e,19.7455,144.6254,207.6775,3.473179,0.1522697,0.42651994,300.5356,02/18.0/2026,2000,g 16.0,4.0
# From MPEC 2025-XC7
313P/Gibbs,e,10.9811,105.9249,255.0010,3.162349,0.1752626,0.23424283,13.5318,02/18.0/2026,2000,g 15.0,4.0
# From MPEC 2025-W75
314P/Montani,e,3.9917,267.6200,213.9030,7.248269,0.0505071,0.41880711,172.3384,02/18.0/2026,2000,g  9.5,4.0
# From MPEC 2025-WD0
315P/LONEOS,e,17.7380,68.6189,65.9799,4.934260,0.0899231,0.52227250,302.7669,02/18.0/2026,2000,g 11.0,4.0
# From MPEC 2025-W75
316P/LONEOS-Christensen,e,9.8645,245.7967,186.2919,4.394952,0.1069727,0.15506773,54.2463,02/18.0/2026,2000,g 13.5,4.0
# From MPEC 2025-W75
317P/WISE,e,11.9746,275.4722,334.8830,2.959834,0.1935544,0.57207291,21.3195,02/18.0/2026,2000,g 17.5,4.0
# From MPEC 2025-W75
318P/McNaught-Hartley,e,17.8700,35.5782,313.3223,7.517208,0.0478211,0.67272292,180.4821,02/18.0/2026,2000,g  8.5,6.0
# From MPEC 2025-W75
319P/Catalina-McNaught,e,15.0989,111.3690,203.5620,3.561385,0.1466478,0.66705857,208.3363,02/18.0/2026,2000,g 15.0,4.0
# From MPEC 2025-W75
320P/McNaught,e,4.9009,295.9472,0.7519,3.096333,0.1808975,0.68501214,336.5161,02/18.0/2026,2000,g 20.5,4.0
# From MPEC 2025-W75
322P/SOHO,e,11.4355,351.3858,57.0233,2.508714,0.2480433,0.97984059,0.0000,08/11.5732/2027,2000,g 19.0,4.0
# From MPEC 2025-W75
323P/SOHO,e,5.2686,323.9051,353.3565,2.463894,0.2548420,0.98382240,0.0000,03/14.2885/2025,2000,g 20.0,4.0
# From MPEC 2025-W75
324P/LaSagra,e,21.3988,270.5691,57.3429,3.097791,0.1807698,0.15273283,316.8846,02/18.0/2026,2000,g 13.0,4.0
# From MPEC 2025-W75
325P/Yang-Gao,e,16.8368,256.8647,344.8585,3.551263,0.1472753,0.58649421,210.4334,02/18.0/2026,2000,g 14.0,4.0
# From MPEC 2025-W75
326P/Hill,e,2.4736,99.7584,277.7286,4.055927,0.1206616,0.32089414,94.5505,02/18.0/2026,2000,g 13.5,4.0
# From MPEC 2025-W75
327P/VanNess,e,36.2230,173.9985,185.0270,3.563366,0.1465256,0.56233920,185.4421,02/18.0/2026,2000,g 16.0,4.0
# From MPEC 2025-W75
328P/LONEOS-Tucker,e,17.7083,341.4868,30.5838,4.184233,0.1151543,0.55342143,65.6536,02/18.0/2026,2000,g 14.5,4.0
# From MPEC 2025-W75
329P/LINEAR-Catalina,e,21.7286,87.6530,343.6574,5.180125,0.0835976,0.67879033,311.1144,02/18.0/2026,2000,g 13.5,4.0
# From MPEC 2025-W75
330P/Catalina,e,15.7422,293.0855,188.8613,6.613812,0.0579464,0.55082174,200.2531,02/18.0/2026,2000,g 12.0,4.0
# From MPEC 2025-YF1
331P/Gibbs,e,9.7408,216.7415,185.8349,3.002919,0.1894038,0.04146492,10.2776,02/18.0/2026,2000,g 12.0,4.0
# From MPEC 2016-K18
332P/Ikeya-Murakami,e,9.3867,3.7558,152.3041,3.085959,0.1818104,0.49002072,298.9796,02/18.0/2026,2000,g 18.0,4.0
# From MPEC 2016-K18
332P-A/Ikeya-Murakami,e,9.3867,3.7558,152.3041,3.085959,0.1818104,0.49002072,298.9796,02/18.0/2026,2000,g 18.0,4.0
# From MPEC 2016-EI8
332P-B/Ikeya-Murakami,e,9.3805,3.8028,152.3711,3.082329,0.1821317,0.48970701,359.9699,03/17.0/2016,2000,g 19.0,4.0
# From MPEC 2016-K18
332P-C/Ikeya-Murakami,e,9.3858,3.7562,152.2954,3.085926,0.1818134,0.49002621,298.9987,02/18.0/2026,2000,g 16.5,4.0
# From MPEC 2016-ED0
332P-D/Ikeya-Murakami,e,9.3761,3.7923,152.4393,3.081138,0.1822373,0.48977814,359.9486,03/17.0/2016,2000,g 19.0,4.0
# From MPEC 2016-ED0
332P-G/Ikeya-Murakami,e,9.2523,3.6955,154.4000,3.050519,0.1849880,0.49200362,359.9006,03/19.0/2016,2000,g 19.0,4.0
# From MPC100285
332P-H/Ikeya-Murakami,e,9.3863,3.7559,152.2961,3.086103,0.1817977,0.49006242,298.9070,02/18.0/2026,2000,g 19.0,4.0
# From MPEC 2016-ED0
332P-I/Ikeya-Murakami,e,9.3791,3.8048,152.3297,3.081767,0.1821815,0.48955490,359.9360,03/17.0/2016,2000,g 20.5,2.0
# From MPEC 2025-W75
333P/LINEAR,e,132.0240,115.7053,26.0386,4.222121,0.1136078,0.73631440,50.6327,02/18.0/2026,2000,g 15.0,4.0
# From MPEC 2025-W75
334P/NEAT,e,20.3617,90.2775,90.1345,6.821788,0.0553168,0.35248535,175.8577,02/18.0/2026,2000,g 10.5,4.0
# From MPEC 2025-W75
335P/Gibbs,e,7.2999,330.7847,162.3408,3.576897,0.1456949,0.54704267,187.2231,02/18.0/2026,2000,g 17.0,4.0
# From MPEC 2025-W75
336P/McNaught,e,17.9607,298.2228,309.3651,5.009702,0.0878995,0.45099128,288.4785,02/18.0/2026,2000,g 13.5,4.0
# From MPEC 2025-W75
337P/WISE,e,17.0898,101.9836,166.3086,3.391858,0.1577784,0.46095607,214.0088,02/18.0/2026,2000,g 17.0,4.0
# From MPEC 2025-W75
338P/McNaught,e,25.3903,9.6478,4.6180,3.892969,0.1283165,0.41293080,72.3514,02/18.0/2026,2000,g 12.0,4.0
# From MPEC 2025-W75
339P/Gibbs,e,5.7389,172.7146,27.4028,3.697864,0.1386046,0.63608105,124.9933,02/18.0/2026,2000,g 17.0,4.0
# From MPEC 2025-W75
340P/Boattini,e,2.0788,291.5967,36.0960,4.245148,0.1126847,0.27963545,19.4793,02/18.0/2026,2000,g 13.0,4.0
# From MPEC 2025-W75
341P/Gibbs,e,3.7964,29.9515,312.3839,4.284442,0.1111380,0.41492495,33.4792,02/18.0/2026,2000,g 12.5,4.0
